STARLINK-30252          
1 57607U 23119F   26068.04029622  .00000226  00000+0  18088-4 0  9996
2 57607  42.9989  70.2401 0001217 279.3430  80.7284 15.26747761143161
BLUEBON                 
1 62688U 25009CH  26068.70316231  .00010452  00000+0  37313-3 0  9992
2 62688  97.4017 152.2033 0001193  43.3900 316.7434 15.29047253 63767
